CCSDS_OMM_VERS = 2.0
CREATION_DATE  = 
ORIGINATOR     = 

OBJECT_NAME    = SL-14 R/B
OBJECT_ID      = 1986-046B
CENTER_NAME    = EARTH
REF_FRAME      = TEME
TIME_SYSTEM    = UTC
MEAN_ELEMENT_THEORY = SGP/SGP4

EPOCH          = 2026-01-26T07:20:20.927328
MEAN_MOTION    = 14.85545455
ECCENTRICITY   = .00233562
INCLINATION    = 82.4833
RA_OF_ASC_NODE = 120.2288
ARG_OF_PERICENTER = 11.9099
MEAN_ANOMALY   = 348.2664

EPHEMERIS_TYPE = 0
CLASSIFICATION_TYPE = U
NORAD_CAT_ID   = 16792
ELEMENT_SET_NO = 999
REV_AT_EPOCH   = 12011
BSTAR          = .8882551E-4
MEAN_MOTION_DOT = .795E-5
MEAN_MOTION_DDOT = 0

CCSDS_OMM_VERS = 2.0
CREATION_DATE  = 
ORIGINATOR     = 

OBJECT_NAME    = SL-14 R/B
OBJECT_ID      = 1986-055B
CENTER_NAME    = EARTH
REF_FRAME      = TEME
TIME_SYSTEM    = UTC
MEAN_ELEMENT_THEORY = SGP/SGP4

EPOCH          = 2026-01-25T20:21:18.574560
MEAN_MOTION    = 14.85590959
ECCENTRICITY   = .00203152
INCLINATION    = 82.5220
RA_OF_ASC_NODE = 166.9259
ARG_OF_PERICENTER = 112.3602
MEAN_ANOMALY   = 39.1002

EPHEMERIS_TYPE = 0
CLASSIFICATION_TYPE = U
NORAD_CAT_ID   = 16882
ELEMENT_SET_NO = 999
REV_AT_EPOCH   = 11300
BSTAR          = .11757387E-3
MEAN_MOTION_DOT = .1045E-4
MEAN_MOTION_DDOT = 0

CCSDS_OMM_VERS = 2.0
CREATION_DATE  = 
ORIGINATOR     = 

OBJECT_NAME    = AJISAI (EGS)
OBJECT_ID      = 1986-061A
CENTER_NAME    = EARTH
REF_FRAME      = TEME
TIME_SYSTEM    = UTC
MEAN_ELEMENT_THEORY = SGP/SGP4

EPOCH          = 2026-01-26T07:08:19.999680
MEAN_MOTION    = 12.44515269
ECCENTRICITY   = .00112721
INCLINATION    = 50.0062
RA_OF_ASC_NODE = 223.7048
ARG_OF_PERICENTER = 178.0447
MEAN_ANOMALY   = 179.6892

EPHEMERIS_TYPE = 0
CLASSIFICATION_TYPE = U
NORAD_CAT_ID   = 16908
ELEMENT_SET_NO = 999
REV_AT_EPOCH   = 46271
BSTAR          = .13660361E-3
MEAN_MOTION_DOT = -.78E-6
MEAN_MOTION_DDOT = 0

CCSDS_OMM_VERS = 2.0
CREATION_DATE  = 
ORIGINATOR     = 

OBJECT_NAME    = COSMOS 1812
OBJECT_ID      = 1987-003A
CENTER_NAME    = EARTH
REF_FRAME      = TEME
TIME_SYSTEM    = UTC
MEAN_ELEMENT_THEORY = SGP/SGP4

EPOCH          = 2026-01-26T00:47:04.953408
MEAN_MOTION    = 15.88282619
ECCENTRICITY   = .00009723
INCLINATION    = 82.4797
RA_OF_ASC_NODE = 243.6622
ARG_OF_PERICENTER = 25.9520
MEAN_ANOMALY   = 334.1800

EPHEMERIS_TYPE = 0
CLASSIFICATION_TYPE = U
NORAD_CAT_ID   = 17295
ELEMENT_SET_NO = 999
REV_AT_EPOCH   = 13765
BSTAR          = .82300747E-3
MEAN_MOTION_DOT = .230474E-2
MEAN_MOTION_DDOT = 0

CCSDS_OMM_VERS = 2.0
CREATION_DATE  = 
ORIGINATOR     = 

OBJECT_NAME    = SL-14 R/B
OBJECT_ID      = 1987-024B
CENTER_NAME    = EARTH
REF_FRAME      = TEME
TIME_SYSTEM    = UTC
MEAN_ELEMENT_THEORY = SGP/SGP4

EPOCH          = 2026-01-26T06:53:42.891936
MEAN_MOTION    = 14.86086464
ECCENTRICITY   = .00192709
INCLINATION    = 82.5303
RA_OF_ASC_NODE = 132.6096
ARG_OF_PERICENTER = 44.7296
MEAN_ANOMALY   = 315.5471

EPHEMERIS_TYPE = 0
CLASSIFICATION_TYPE = U
NORAD_CAT_ID   = 17567
ELEMENT_SET_NO = 999
REV_AT_EPOCH   = 8183
BSTAR          = .95742862E-4
MEAN_MOTION_DOT = .865E-5
MEAN_MOTION_DDOT = 0

CCSDS_OMM_VERS = 2.0
CREATION_DATE  = 
ORIGINATOR     = 

OBJECT_NAME    = COSMOS 1833
OBJECT_ID      = 1987-027A
CENTER_NAME    = EARTH
REF_FRAME      = TEME
TIME_SYSTEM    = UTC
MEAN_ELEMENT_THEORY = SGP/SGP4

EPOCH          = 2026-01-26T07:34:42.101184
MEAN_MOTION    = 14.13051492
ECCENTRICITY   = .00245766
INCLINATION    = 70.9196
RA_OF_ASC_NODE = 55.0771
ARG_OF_PERICENTER = 270.7449
MEAN_ANOMALY   = 89.0856

EPHEMERIS_TYPE = 0
CLASSIFICATION_TYPE = U
NORAD_CAT_ID   = 17589
ELEMENT_SET_NO = 999
REV_AT_EPOCH   = 433
BSTAR          = .14097883E-3
MEAN_MOTION_DOT = .216E-5
MEAN_MOTION_DDOT = 0

CCSDS_OMM_VERS = 2.0
CREATION_DATE  = 
ORIGINATOR     = 

OBJECT_NAME    = SL-16 R/B
OBJECT_ID      = 1987-027B
CENTER_NAME    = EARTH
REF_FRAME      = TEME
TIME_SYSTEM    = UTC
MEAN_ELEMENT_THEORY = SGP/SGP4

EPOCH          = 2026-01-26T06:30:10.804032
MEAN_MOTION    = 14.17160167
ECCENTRICITY   = .00058829
INCLINATION    = 71.0037
RA_OF_ASC_NODE = 5.8788
ARG_OF_PERICENTER = 210.1132
MEAN_ANOMALY   = 149.9655

EPHEMERIS_TYPE = 0
CLASSIFICATION_TYPE = U
NORAD_CAT_ID   = 17590
ELEMENT_SET_NO = 999
REV_AT_EPOCH   = 933
BSTAR          = .10293085E-3
MEAN_MOTION_DOT = .16E-5
MEAN_MOTION_DDOT = 0

CCSDS_OMM_VERS = 2.0
CREATION_DATE  = 
ORIGINATOR     = 

OBJECT_NAME    = SL-14 R/B
OBJECT_ID      = 1987-038B
CENTER_NAME    = EARTH
REF_FRAME      = TEME
TIME_SYSTEM    = UTC
MEAN_ELEMENT_THEORY = SGP/SGP4

EPOCH          = 2026-01-26T06:14:59.515584
MEAN_MOTION    = 14.85320351
ECCENTRICITY   = .00180299
INCLINATION    = 82.5037
RA_OF_ASC_NODE = 336.7656
ARG_OF_PERICENTER = 308.1939
MEAN_ANOMALY   = 51.7652

EPHEMERIS_TYPE = 0
CLASSIFICATION_TYPE = U
NORAD_CAT_ID   = 17912
ELEMENT_SET_NO = 999
REV_AT_EPOCH   = 7293
BSTAR          = .10909864E-3
MEAN_MOTION_DOT = .963E-5
MEAN_MOTION_DDOT = 0

CCSDS_OMM_VERS = 2.0
CREATION_DATE  = 
ORIGINATOR     = 

OBJECT_NAME    = COSMOS 1844
OBJECT_ID      = 1987-041A
CENTER_NAME    = EARTH
REF_FRAME      = TEME
TIME_SYSTEM    = UTC
MEAN_ELEMENT_THEORY = SGP/SGP4

EPOCH          = 2026-01-26T07:47:54.187008
MEAN_MOTION    = 14.14534869
ECCENTRICITY   = .00284548
INCLINATION    = 70.8990
RA_OF_ASC_NODE = 123.5365
ARG_OF_PERICENTER = 85.8965
MEAN_ANOMALY   = 274.5408

EPHEMERIS_TYPE = 0
CLASSIFICATION_TYPE = U
NORAD_CAT_ID   = 17973
ELEMENT_SET_NO = 999
REV_AT_EPOCH   = 99759
BSTAR          = -.39422068E-4
MEAN_MOTION_DOT = -.124E-5
MEAN_MOTION_DDOT = 0

CCSDS_OMM_VERS = 2.0
CREATION_DATE  = 
ORIGINATOR     = 

OBJECT_NAME    = SL-14 R/B
OBJECT_ID      = 1987-055B
CENTER_NAME    = EARTH
REF_FRAME      = TEME
TIME_SYSTEM    = UTC
MEAN_ELEMENT_THEORY = SGP/SGP4

EPOCH          = 2026-01-26T05:52:18.090912
MEAN_MOTION    = 14.85574732
ECCENTRICITY   = .00214041
INCLINATION    = 82.4978
RA_OF_ASC_NODE = 29.0341
ARG_OF_PERICENTER = 150.0969
MEAN_ANOMALY   = 210.1475

EPHEMERIS_TYPE = 0
CLASSIFICATION_TYPE = U
NORAD_CAT_ID   = 18153
ELEMENT_SET_NO = 999
REV_AT_EPOCH   = 6363
BSTAR          = .8750406E-4
MEAN_MOTION_DOT = .784E-5
MEAN_MOTION_DDOT = 0

CCSDS_OMM_VERS = 2.0
CREATION_DATE  = 
ORIGINATOR     = 

OBJECT_NAME    = COSMOS 1867
OBJECT_ID      = 1987-060A
CENTER_NAME    = EARTH
REF_FRAME      = TEME
TIME_SYSTEM    = UTC
MEAN_ELEMENT_THEORY = SGP/SGP4

EPOCH          = 2026-01-26T07:33:05.616576
MEAN_MOTION    = 14.31495507
ECCENTRICITY   = .00139702
INCLINATION    = 65.0102
RA_OF_ASC_NODE = 65.3747
ARG_OF_PERICENTER = 275.3444
MEAN_ANOMALY   = 84.6046

EPHEMERIS_TYPE = 0
CLASSIFICATION_TYPE = U
NORAD_CAT_ID   = 18187
ELEMENT_SET_NO = 999
REV_AT_EPOCH   = 1387
BSTAR          = .47190614E-4
MEAN_MOTION_DOT = .25E-6
MEAN_MOTION_DDOT = 0

CCSDS_OMM_VERS = 2.0
CREATION_DATE  = 
ORIGINATOR     = 

OBJECT_NAME    = SL-14 R/B
OBJECT_ID      = 1988-001B
CENTER_NAME    = EARTH
REF_FRAME      = TEME
TIME_SYSTEM    = UTC
MEAN_ELEMENT_THEORY = SGP/SGP4

EPOCH          = 2026-01-26T07:18:26.317728
MEAN_MOTION    = 14.85476551
ECCENTRICITY   = .00186804
INCLINATION    = 82.5104
RA_OF_ASC_NODE = 235.2302
ARG_OF_PERICENTER = 23.0708
MEAN_ANOMALY   = 337.1342

EPHEMERIS_TYPE = 0
CLASSIFICATION_TYPE = U
NORAD_CAT_ID   = 18749
ELEMENT_SET_NO = 999
REV_AT_EPOCH   = 3573
BSTAR          = .77443631E-4
MEAN_MOTION_DOT = .694E-5
MEAN_MOTION_DDOT = 0

