SL-14 R/B               
1 16792U 86046B   26026.30579777  .00000795  00000+0  88826-4 0  9996
2 16792  82.4833 120.2288 0023356  11.9099 348.2664 14.85545455120110
SL-14 R/B               
1 16882U 86055B   26025.84813165  .00001045  00000+0  11757-3 0  9993
2 16882  82.5220 166.9259 0020315 112.3602  39.1002 14.85590959113005
AJISAI (EGS)            
1 16908U 86061A   26026.29745370 -.00000078  00000+0  13660-3 0  9992
2 16908  50.0062 223.7048 0011272 178.0447 179.6892 12.44515269462710
COSMOS 1812             
1 17295U 87003A   26026.03269622  .00230474  00000+0  82301-3 0  9994
2 17295  82.4797 243.6622 0000972  25.9520 334.1800 15.88282619137650
SL-14 R/B               
1 17567U 87024B   26026.28730199  .00000865  00000+0  95743-4 0  9992
2 17567  82.5303 132.6096 0019270  44.7296 315.5471 14.86086464 81830
COSMOS 1833             
1 17589U 87027A   26026.31576506  .00000216  00000+0  14098-3 0  9996
2 17589  70.9196  55.0771 0024576 270.7449  89.0856 14.13051492  4332
SL-16 R/B               
1 17590U 87027B   26026.27095838  .00000160  00000+0  10293-3 0  9998
2 17590  71.0037   5.8788 0005882 210.1132 149.9655 14.17160167  9339
SL-14 R/B               
1 17912U 87038B   26026.26041106  .00000963  00000+0  10910-3 0  9993
2 17912  82.5037 336.7656 0018029 308.1939  51.7652 14.85320351 72935
COSMOS 1844             
1 17973U 87041A   26026.32493272 -.00000124  00000+0 -39422-4 0  9997
2 17973  70.8990 123.5365 0028454  85.8965 274.5408 14.14534869997595
SL-14 R/B               
1 18153U 87055B   26026.24465383  .00000784  00000+0  87504-4 0  9990
2 18153  82.4978  29.0341 0021404 150.0969 210.1475 14.85574732 63632
COSMOS 1867             
1 18187U 87060A   26026.31464834  .00000025  00000+0  47191-4 0  9997
2 18187  65.0102  65.3747 0013970 275.3444  84.6046 14.31495507 13878
SL-14 R/B               
1 18749U 88001B   26026.30447127  .00000694  00000+0  77444-4 0  9998
2 18749  82.5104 235.2302 0018680  23.0708 337.1342 14.85476551 35738
